ONEWEB-0056             
1 45159U 20008AE  26047.03700077  .00000210  00000+0  56525-3 0  9995
2 45159  87.8754  60.3958 0002048  86.4474 273.6887 13.10370043292313
ONEWEB-0057             
1 45160U 20008AF  26047.04459741 -.00000189  00000+0 -57914-3 0  9997
2 45160  87.8749  60.4050 0001885  82.3930 277.7412 13.10369229292484
ONEWEB-0058             
1 45161U 20008AG  26047.03132775  .00000517  00000+0  14449-2 0  9990
2 45161  87.8749  60.4172 0001802  96.2570 263.8762 13.10370248292558
ONEWEB-0059             
1 45162U 20008AH  26047.02787153  .00000640  00000+0  17983-2 0  9999
2 45162  87.8748  60.4183 0001761  91.1064 269.0265 13.10371169292454
ONEWEB-0062             
1 45163U 20008AJ  26047.05358303 -.00000442  00000+0 -13034-2 0  9999
2 45163  87.8757  60.3937 0001895 105.3770 254.7567 13.10370708292321
ONEWEB-0065             
1 45164U 20008AK  26047.08417326  .00000309  00000+0  84886-3 0  9998
2 45164  87.8754  60.3980 0002091  81.7273 278.4092 13.10374708292028
ONEWEB-0066             
1 45424U 20020A   26046.98743195  .00000453  00000+0  12430-2 0  9990
2 45424  87.8833  45.1746 0001696  87.5740 272.5582 13.11416035286796
ONEWEB-0067             
1 45425U 20020B   26047.02486369 -.00000424  00000+0 -12324-2 0  9996
2 45425  87.8839  45.0751 0001821  80.6363 279.4971 13.11418003286855
ONEWEB-0080             
1 45426U 20020C   26047.03406228 -.00000126  00000+0 -39217-3 0  9994
2 45426  87.8831  45.1635 0001880  96.8620 263.2722 13.11420858286823
ONEWEB-0090             
1 45427U 20020D   26046.97739428  .00000546  00000+0  15054-2 0  9994
2 45427  87.8832  45.1759 0001846  90.6901 269.4438 13.11418238286784
ONEWEB-0061             
1 45428U 20020E   26047.00933262 -.00000344  00000+0 -10053-2 0  9994
2 45428  87.8833  45.1547 0001837  88.8625 271.2713 13.11414753286744
ONEWEB-0081             
1 45429U 20020F   26046.99081059  .00000378  00000+0  10297-2 0  9995
2 45429  87.8836  45.1732 0001707  80.6910 279.4411 13.11417377286859
ONEWEB-0069             
1 45430U 20020G   26046.97980900  .00000579  00000+0  15973-2 0  9997
2 45430  87.8836  45.1707 0001793  86.1163 274.0170 13.11416705286788
ONEWEB-0031             
1 45431U 20020H   26047.02811377 -.00000409  00000+0 -11895-2 0  9999
2 45431  87.8826  45.1814 0001902  93.3932 266.7414 13.11417914286774
ONEWEB-0027             
1 45432U 20020J   26046.95986280  .00000031  00000+0  45610-4 0  9990
2 45432  87.9119  29.9201 0002232  91.0603 269.0785 13.17651275290394
ONEWEB-0064             
1 45433U 20020K   26047.02641645 -.00000421  00000+0 -12230-2 0  9998
2 45433  87.8822  45.1721 0001957  91.0671 269.0681 13.11417830286807
ONEWEB-0018             
1 45434U 20020L   26046.98234498  .00000586  00000+0  16164-2 0  9997
2 45434  87.8837  45.1753 0001679  90.5072 269.6248 13.11415709286740
