[{"OBJECT_NAME":"ONEWEB-0056","OBJECT_ID":"2020-008AE","EPOCH":"2026-02-16T00:53:16.866528","MEAN_MOTION":13.10370043,"ECCENTRICITY":0.00020483,"INCLINATION":87.8754,"RA_OF_ASC_NODE":60.3958,"ARG_OF_PERICENTER":86.4474,"MEAN_ANOMALY":273.6887,"EPHEMERIS_TYPE":0,"CLASSIFICATION_TYPE":"U","NORAD_CAT_ID":45159,"ELEMENT_SET_NO":999,"REV_AT_EPOCH":29231,"BSTAR":0.00056524724,"MEAN_MOTION_DOT":2.1e-6,"MEAN_MOTION_DDOT":0},{"OBJECT_NAME":"ONEWEB-0057","OBJECT_ID":"2020-008AF","EPOCH":"2026-02-16T01:04:13.216224","MEAN_MOTION":13.10369229,"ECCENTRICITY":0.0001885,"INCLINATION":87.8749,"RA_OF_ASC_NODE":60.405,"ARG_OF_PERICENTER":82.393,"MEAN_ANOMALY":277.7412,"EPHEMERIS_TYPE":0,"CLASSIFICATION_TYPE":"U","NORAD_CAT_ID":45160,"ELEMENT_SET_NO":999,"REV_AT_EPOCH":29248,"BSTAR":-0.00057914296,"MEAN_MOTION_DOT":-1.89e-6,"MEAN_MOTION_DDOT":0},{"OBJECT_NAME":"ONEWEB-0058","OBJECT_ID":"2020-008AG","EPOCH":"2026-02-16T00:45:06.717600","MEAN_MOTION":13.10370248,"ECCENTRICITY":0.00018021,"INCLINATION":87.8749,"RA_OF_ASC_NODE":60.4172,"ARG_OF_PERICENTER":96.257,"MEAN_ANOMALY":263.8762,"EPHEMERIS_TYPE":0,"CLASSIFICATION_TYPE":"U","NORAD_CAT_ID":45161,"ELEMENT_SET_NO":999,"REV_AT_EPOCH":29255,"BSTAR":0.0014448842,"MEAN_MOTION_DOT":5.17e-6,"MEAN_MOTION_DDOT":0},{"OBJECT_NAME":"ONEWEB-0059","OBJECT_ID":"2020-008AH","EPOCH":"2026-02-16T00:40:08.100192","MEAN_MOTION":13.10371169,"ECCENTRICITY":0.0001761,"INCLINATION":87.8748,"RA_OF_ASC_NODE":60.4183,"ARG_OF_PERICENTER":91.1064,"MEAN_ANOMALY":269.0265,"EPHEMERIS_TYPE":0,"CLASSIFICATION_TYPE":"U","NORAD_CAT_ID":45162,"ELEMENT_SET_NO":999,"REV_AT_EPOCH":29245,"BSTAR":0.0017982815,"MEAN_MOTION_DOT":6.4e-6,"MEAN_MOTION_DDOT":0},{"OBJECT_NAME":"ONEWEB-0062","OBJECT_ID":"2020-008AJ","EPOCH":"2026-02-16T01:17:09.573792","MEAN_MOTION":13.10370708,"ECCENTRICITY":0.00018952,"INCLINATION":87.8757,"RA_OF_ASC_NODE":60.3937,"ARG_OF_PERICENTER":105.377,"MEAN_ANOMALY":254.7567,"EPHEMERIS_TYPE":0,"CLASSIFICATION_TYPE":"U","NORAD_CAT_ID":45163,"ELEMENT_SET_NO":999,"REV_AT_EPOCH":29232,"BSTAR":-0.0013034459,"MEAN_MOTION_DOT":-4.42e-6,"MEAN_MOTION_DDOT":0},{"OBJECT_NAME":"ONEWEB-0065","OBJECT_ID":"2020-008AK","EPOCH":"2026-02-16T02:01:12.569664","MEAN_MOTION":13.10374708,"ECCENTRICITY":0.00020913,"INCLINATION":87.8754,"RA_OF_ASC_NODE":60.398,"ARG_OF_PERICENTER":81.7273,"MEAN_ANOMALY":278.4092,"EPHEMERIS_TYPE":0,"CLASSIFICATION_TYPE":"U","NORAD_CAT_ID":45164,"ELEMENT_SET_NO":999,"REV_AT_EPOCH":29202,"BSTAR":0.00084885834,"MEAN_MOTION_DOT":3.09e-6,"MEAN_MOTION_DDOT":0},{"OBJECT_NAME":"ONEWEB-0066","OBJECT_ID":"2020-020A","EPOCH":"2026-02-15T23:41:54.120480","MEAN_MOTION":13.11416035,"ECCENTRICITY":0.0001696,"INCLINATION":87.8833,"RA_OF_ASC_NODE":45.1746,"ARG_OF_PERICENTER":87.574,"MEAN_ANOMALY":272.5582,"EPHEMERIS_TYPE":0,"CLASSIFICATION_TYPE":"U","NORAD_CAT_ID":45424,"ELEMENT_SET_NO":999,"REV_AT_EPOCH":28679,"BSTAR":0.001243,"MEAN_MOTION_DOT":4.53e-6,"MEAN_MOTION_DDOT":0},{"OBJECT_NAME":"ONEWEB-0067","OBJECT_ID":"2020-020B","EPOCH":"2026-02-16T00:35:48.222816","MEAN_MOTION":13.11418003,"ECCENTRICITY":0.00018216,"INCLINATION":87.8839,"RA_OF_ASC_NODE":45.0751,"ARG_OF_PERICENTER":80.6363,"MEAN_ANOMALY":279.4971,"EPHEMERIS_TYPE":0,"CLASSIFICATION_TYPE":"U","NORAD_CAT_ID":45425,"ELEMENT_SET_NO":999,"REV_AT_EPOCH":28685,"BSTAR":-0.0012324081,"MEAN_MOTION_DOT":-4.24e-6,"MEAN_MOTION_DDOT":0},{"OBJECT_NAME":"ONEWEB-0080","OBJECT_ID":"2020-020C","EPOCH":"2026-02-16T00:49:02.980992","MEAN_MOTION":13.11420858,"ECCENTRICITY":0.00018802,"INCLINATION":87.8831,"RA_OF_ASC_NODE":45.1635,"ARG_OF_PERICENTER":96.862,"MEAN_ANOMALY":263.2722,"EPHEMERIS_TYPE":0,"CLASSIFICATION_TYPE":"U","NORAD_CAT_ID":45426,"ELEMENT_SET_NO":999,"REV_AT_EPOCH":28682,"BSTAR":-0.00039217203,"MEAN_MOTION_DOT":-1.26e-6,"MEAN_MOTION_DDOT":0},{"OBJECT_NAME":"ONEWEB-0090","OBJECT_ID":"2020-020D","EPOCH":"2026-02-15T23:27:26.865792","MEAN_MOTION":13.11418238,"ECCENTRICITY":0.0001846,"INCLINATION":87.8832,"RA_OF_ASC_NODE":45.1759,"ARG_OF_PERICENTER":90.6901,"MEAN_ANOMALY":269.4438,"EPHEMERIS_TYPE":0,"CLASSIFICATION_TYPE":"U","NORAD_CAT_ID":45427,"ELEMENT_SET_NO":999,"REV_AT_EPOCH":28678,"BSTAR":0.0015054,"MEAN_MOTION_DOT":5.46e-6,"MEAN_MOTION_DDOT":0},{"OBJECT_NAME":"ONEWEB-0061","OBJECT_ID":"2020-020E","EPOCH":"2026-02-16T00:13:26.338368","MEAN_MOTION":13.11414753,"ECCENTRICITY":0.00018374,"INCLINATION":87.8833,"RA_OF_ASC_NODE":45.1547,"ARG_OF_PERICENTER":88.8625,"MEAN_ANOMALY":271.2713,"EPHEMERIS_TYPE":0,"CLASSIFICATION_TYPE":"U","NORAD_CAT_ID":45428,"ELEMENT_SET_NO":999,"REV_AT_EPOCH":28674,"BSTAR":-0.0010052967,"MEAN_MOTION_DOT":-3.44e-6,"MEAN_MOTION_DDOT":0},{"OBJECT_NAME":"ONEWEB-0081","OBJECT_ID":"2020-020F","EPOCH":"2026-02-15T23:46:46.034976","MEAN_MOTION":13.11417377,"ECCENTRICITY":0.0001707,"INCLINATION":87.8836,"RA_OF_ASC_NODE":45.1732,"ARG_OF_PERICENTER":80.691,"MEAN_ANOMALY":279.4411,"EPHEMERIS_TYPE":0,"CLASSIFICATION_TYPE":"U","NORAD_CAT_ID":45429,"ELEMENT_SET_NO":999,"REV_AT_EPOCH":28685,"BSTAR":0.0010297,"MEAN_MOTION_DOT":3.78e-6,"MEAN_MOTION_DDOT":0},{"OBJECT_NAME":"ONEWEB-0069","OBJECT_ID":"2020-020G","EPOCH":"2026-02-15T23:30:55.497600","MEAN_MOTION":13.11416705,"ECCENTRICITY":0.0001793,"INCLINATION":87.8836,"RA_OF_ASC_NODE":45.1707,"ARG_OF_PERICENTER":86.1163,"MEAN_ANOMALY":274.017,"EPHEMERIS_TYPE":0,"CLASSIFICATION_TYPE":"U","NORAD_CAT_ID":45430,"ELEMENT_SET_NO":999,"REV_AT_EPOCH":28678,"BSTAR":0.0015973,"MEAN_MOTION_DOT":5.79e-6,"MEAN_MOTION_DDOT":0},{"OBJECT_NAME":"ONEWEB-0031","OBJECT_ID":"2020-020H","EPOCH":"2026-02-16T00:40:29.029728","MEAN_MOTION":13.11417914,"ECCENTRICITY":0.00019021,"INCLINATION":87.8826,"RA_OF_ASC_NODE":45.1814,"ARG_OF_PERICENTER":93.3932,"MEAN_ANOMALY":266.7414,"EPHEMERIS_TYPE":0,"CLASSIFICATION_TYPE":"U","NORAD_CAT_ID":45431,"ELEMENT_SET_NO":999,"REV_AT_EPOCH":28677,"BSTAR":-0.0011895215,"MEAN_MOTION_DOT":-4.09e-6,"MEAN_MOTION_DDOT":0},{"OBJECT_NAME":"ONEWEB-0027","OBJECT_ID":"2020-020J","EPOCH":"2026-02-15T23:02:12.145920","MEAN_MOTION":13.17651275,"ECCENTRICITY":0.0002232,"INCLINATION":87.9119,"RA_OF_ASC_NODE":29.9201,"ARG_OF_PERICENTER":91.0603,"MEAN_ANOMALY":269.0785,"EPHEMERIS_TYPE":0,"CLASSIFICATION_TYPE":"U","NORAD_CAT_ID":45432,"ELEMENT_SET_NO":999,"REV_AT_EPOCH":29039,"BSTAR":4.561e-5,"MEAN_MOTION_DOT":3.1e-7,"MEAN_MOTION_DDOT":0},{"OBJECT_NAME":"ONEWEB-0064","OBJECT_ID":"2020-020K","EPOCH":"2026-02-16T00:38:02.381280","MEAN_MOTION":13.1141783,"ECCENTRICITY":0.00019574,"INCLINATION":87.8822,"RA_OF_ASC_NODE":45.1721,"ARG_OF_PERICENTER":91.0671,"MEAN_ANOMALY":269.0681,"EPHEMERIS_TYPE":0,"CLASSIFICATION_TYPE":"U","NORAD_CAT_ID":45433,"ELEMENT_SET_NO":999,"REV_AT_EPOCH":28680,"BSTAR":-0.0012230174,"MEAN_MOTION_DOT":-4.21e-6,"MEAN_MOTION_DDOT":0},{"OBJECT_NAME":"ONEWEB-0018","OBJECT_ID":"2020-020L","EPOCH":"2026-02-15T23:34:34.606272","MEAN_MOTION":13.11415709,"ECCENTRICITY":0.0001679,"INCLINATION":87.8837,"RA_OF_ASC_NODE":45.1753,"ARG_OF_PERICENTER":90.5072,"MEAN_ANOMALY":269.6248,"EPHEMERIS_TYPE":0,"CLASSIFICATION_TYPE":"U","NORAD_CAT_ID":45434,"ELEMENT_SET_NO":999,"REV_AT_EPOCH":28674,"BSTAR":0.0016164,"MEAN_MOTION_DOT":5.86e-6,"MEAN_MOTION_DDOT":0}]
